[{"OBJECT_NAME":"GRUS-1C","OBJECT_ID":"2021-022B","EPOCH":"2026-03-09T22:02:59.067744","MEAN_MOTION":14.98740486,"ECCENTRICITY":0.00125084,"INCLINATION":97.5524,"RA_OF_ASC_NODE":315.2446,"ARG_OF_PERICENTER":300.8214,"MEAN_ANOMALY":59.1778,"EPHEMERIS_TYPE":0,"CLASSIFICATION_TYPE":"U","NORAD_CAT_ID":47933,"ELEMENT_SET_NO":999,"REV_AT_EPOCH":27103,"BSTAR":0.00015887452,"MEAN_MOTION_DOT":1.857e-5,"MEAN_MOTION_DDOT":0},{"OBJECT_NAME":"STARLINK-34696","OBJECT_ID":"2025-150U","EPOCH":"2026-03-09T14:41:13.275744","MEAN_MOTION":14.98315952,"ECCENTRICITY":0.0003774,"INCLINATION":70.0012,"RA_OF_ASC_NODE":134.7125,"ARG_OF_PERICENTER":267.9123,"MEAN_ANOMALY":92.1604,"EPHEMERIS_TYPE":0,"CLASSIFICATION_TYPE":"U","NORAD_CAT_ID":64808,"ELEMENT_SET_NO":999,"REV_AT_EPOCH":3650,"BSTAR":-5.5574e-5,"MEAN_MOTION_DOT":-7.56e-6,"MEAN_MOTION_DDOT":0}]
